OBJECT_NAME,OBJECT_ID,EPOCH,MEAN_MOTION,ECCENTRICITY,INCLINATION,RA_OF_ASC_NODE,ARG_OF_PERICENTER,MEAN_ANOMALY,EPHEMERIS_TYPE,CLASSIFICATION_TYPE,NORAD_CAT_ID,ELEMENT_SET_NO,REV_AT_EPOCH,BSTAR,MEAN_MOTION_DOT,MEAN_MOTION_DDOT
BEIDOU-2 IGSO-5 (C10),2011-073A,2026-06-06T19:12:21.798720,1.00275467,.01135482,47.6984,271.6762,221.6933,141.6840,0,U,37948,999,5303,0,-.158E-5,0
LUCH 5A (SDCM/PRN 140),2011-074B,2026-06-06T14:15:51.287040,1.00269862,.00024028,8.7265,73.9638,12.4500,189.5697,0,U,37951,999,5294,0,-.37E-6,0
BEIDOU-2 G5 (C05),2012-008A,2026-06-06T22:18:24.496416,1.00269909,.00094943,3.5477,69.7592,276.3012,302.5758,0,U,38091,999,5226,0,.71E-6,0
BEIDOU-2 M3 (C11),2012-018A,2026-06-06T10:47:18.921984,1.86230163,.00199262,55.7678,305.2371,274.9338,84.8288,0,U,38250,999,9574,0,-.54E-6,0
BEIDOU-2 M4 (C12),2012-018B,2026-06-06T09:09:48.312288,1.86229774,.00110999,55.6678,304.4539,277.6909,82.1732,0,U,38251,999,9574,0,-.54E-6,0
SES-5 (EGNOS/PRN 136),2012-036A,2026-06-06T22:03:04.593024,1.00265273,.00019571,0.0517,308.6088,138.2057,144.2649,0,U,38652,999,4435,0,.46E-6,0
BEIDOU-2 M6 (C14),2012-050B,2026-06-06T15:05:07.096704,1.86230997,.00139049,56.5352,63.2436,355.6952,4.3211,0,U,38775,999,9311,0,-.39E-6,0
GSAT-10 (GAGAN/PRN 128),2012-051B,2026-06-06T22:25:16.338432,1.00271851,.00080145,0.0175,262.3536,186.5935,225.7485,0,U,38779,999,4999,0,-.151E-5,0
GPS BIIF-3  (PRN 24),2012-053A,2026-06-06T08:20:46.425120,2.00567344,.01796965,53.5839,144.0434,65.6043,296.2529,0,U,38833,999,9922,0,.87E-6,0
GSAT0103 (GALILEO-FM3),2012-055A,2026-06-05T03:46:28.790688,1.70473498,.00051664,55.7989,101.8756,302.6849,57.2312,0,U,38857,999,8480,0,.18E-6,0
BEIDOU-2 G6 (C02),2012-059A,2026-06-06T20:42:56.335392,1.00275124,.00103896,4.3949,73.6310,324.3391,252.0259,0,U,38953,999,4980,0,-.162E-5,0
LUCH 5B (SDCM/PRN 125),2012-061A,2026-06-05T23:41:51.203616,1.00274220,.00016665,10.4571,49.9907,137.7014,45.8723,0,U,38977,999,4949,0,-.127E-5,0
COSMOS 2485 (747),2013-019A,2026-06-06T02:48:31.416192,2.13103501,.00234828,65.4139,73.9758,234.9271,124.8751,0,U,39155,999,10204,0,-.7E-7,0
GPS BIIF-4  (PRN 27),2013-023A,2026-06-05T05:12:52.058880,2.00563607,.01416227,54.5137,269.4614,50.9838,310.2894,0,U,39166,999,9564,0,-.27E-6,0
IRNSS-1A,2013-034A,2026-05-22T20:37:38.469792,1.00280263,.00166187,35.6649,64.2334,185.3754,355.4646,0,U,39199,999,4711,0,.59E-6,0
GPS BIIF-5  (PRN 30),2014-008A,2026-06-06T05:10:58.021248,2.00559138,.00842346,53.6529,149.7672,231.0946,128.1524,0,U,39533,999,8946,0,.88E-6,0
ASTRA 5B (EGNOS/PRN 123),2014-011B,2026-06-06T23:48:58.697856,1.00269587,.00021875,0.0586,315.8614,107.7215,212.5755,0,U,39617,999,4456,0,.151E-5,0
COSMOS 2492 (754),2014-012A,2026-06-06T13:05:03.341184,2.13103531,.00105484,65.3042,314.2975,326.7027,33.2274,0,U,39620,999,9501,0,-.29E-6,0
IRNSS-1B,2014-017A,2026-05-19T20:39:38.653920,1.00280229,.00242269,28.9733,240.8911,185.2284,176.5740,0,U,39635,999,4451,0,.103E-5,0
LUCH 5V (SDCM/PRN 141),2014-023A,2026-06-06T20:27:21.666240,1.00268278,.00028246,5.1075,69.8532,28.9558,198.0024,0,U,39727,999,4425,0,-.254E-5,0
GPS BIIF-6  (PRN 06),2014-026A,2026-06-06T11:47:34.623744,2.00561837,.00382583,56.5037,331.9339,326.7311,33.0353,0,U,39741,999,8832,0,-.6E-6,0
COSMOS 2500 (755),2014-032A,2026-06-05T07:22:31.262592,2.13106228,.00069216,65.2399,314.0875,182.6987,177.2913,0,U,40001,999,9320,0,-.32E-6,0
GPS BIIF-7  (PRN 09),2014-045A,2026-06-06T02:01:34.351968,2.00557729,.00328616,55.3463,88.9073,118.4040,241.9212,0,U,40105,999,8585,0,.7E-7,0
GSAT0201 (GALILEO 5),2014-050A,2026-06-02T20:44:38.047200,1.85520153,.16724063,48.8915,274.0236,178.8372,181.6513,0,U,40128,999,7805,0,-.5E-6,0
GSAT0202 (GALILEO 6),2014-050B,2026-06-05T19:33:21.866688,1.85520656,.16740733,48.9049,272.9882,179.6779,180.4916,0,U,40129,999,8027,0,-.47E-6,0
IRNSS-1C,2014-061A,2026-06-06T20:26:22.775136,1.00270962,.00226053,6.4923,89.1238,1.2769,194.4828,0,U,40269,999,4258,0,-.148E-5,0
GPS BIIF-8  (PRN 03),2014-068A,2026-06-06T10:53:28.523040,2.00575579,.0066799,56.9803,31.3683,70.1816,290.5925,0,U,40294,999,8499,0,-.67E-6,0
COSMOS 2501 (702K),2014-075A,2026-06-06T12:11:10.554720,2.13101451,.00224493,63.6156,190.7418,212.1296,147.7991,0,U,40315,999,8962,0,.8E-6,0
GPS BIIF-9  (PRN 26),2015-013A,2026-06-05T02:18:11.228256,2.00552074,.01093013,53.1687,204.6778,40.1042,320.7783,0,U,40534,999,8158,0,.46E-6,0
GSAT0203 (GALILEO 7),2015-017A,2026-06-05T11:32:53.568384,1.70476258,.00020943,56.7910,341.9146,282.9852,77.0035,0,U,40544,999,6900,0,-.68E-6,0
GSAT0204 (GALILEO 8),2015-017B,2026-06-05T03:36:30.892320,1.70475724,.0001822,56.7982,341.9422,253.1460,106.8459,0,U,40545,999,3204,0,-.69E-6,0
